[{"OBJECT_NAME":"IRIDIUM 174","OBJECT_ID":"2023-068U","EPOCH":"2026-03-09T22:04:44.769504","MEAN_MOTION":14.7225064,"ECCENTRICITY":0.00025981,"INCLINATION":86.6101,"RA_OF_ASC_NODE":35.1661,"ARG_OF_PERICENTER":80.0805,"MEAN_ANOMALY":280.0705,"EPHEMERIS_TYPE":0,"CLASSIFICATION_TYPE":"U","NORAD_CAT_ID":56728,"ELEMENT_SET_NO":999,"REV_AT_EPOCH":15141,"BSTAR":0.00022876362,"MEAN_MOTION_DOT":1.467e-5,"MEAN_MOTION_DDOT":0},{"OBJECT_NAME":"CZ-6A DEB","OBJECT_ID":"2024-140DT","EPOCH":"2026-03-09T14:39:14.955264","MEAN_MOTION":14.5080366,"ECCENTRICITY":0.010657,"INCLINATION":89.0389,"RA_OF_ASC_NODE":285.6419,"ARG_OF_PERICENTER":269.9567,"MEAN_ANOMALY":88.9429,"EPHEMERIS_TYPE":0,"CLASSIFICATION_TYPE":"U","NORAD_CAT_ID":60714,"ELEMENT_SET_NO":999,"REV_AT_EPOCH":8325,"BSTAR":0.00038352,"MEAN_MOTION_DOT":1.64e-5,"MEAN_MOTION_DDOT":0}]
